TEVEL2-3                
1 63218U 25052J   26155.64673364  .00020177  00000+0  62480-3 0  9991
2 63218  97.3888  51.6166 0003978 138.3190 221.8356 15.33483588 68179
TEVEL2-2                
1 63219U 25052K   26155.65203120  .00020518  00000+0  63618-3 0  9995
2 63219  97.3887  51.6034 0003936 139.0495 221.1044 15.33439815 68174
TEVEL2-9                
1 63237U 25052AD  26156.26677513  .00015357  00000+0  50636-3 0  9995
2 63237  97.3943  51.6191 0006650 165.5205 194.6228 15.31514886 68202
TEVEL2-7                
1 63238U 25052AE  26155.65193812  .00017921  00000+0  59588-3 0  9997
2 63238  97.3951  50.9267 0006581 168.2020 191.9377 15.31212802 68103
TEVEL2-8                
1 63239U 25052AF  26155.66005754  .00017961  00000+0  59749-3 0  9999
2 63239  97.3951  50.9120 0006563 168.5625 191.5767 15.31195553 68108
INNOSAT 16 (RS92S7)     
1 64878U 25155C   26156.25982302  .00005964  00000+0  23936-3 0  9991
2 64878  97.4562 123.4274 0009157 219.5402 140.5169 15.25324723 78854
GEOSCAN 6 (RS92S6)      
1 64879U 25155D   26156.27879123  .00009330  00000+0  32448-3 0  9999
2 64879  97.4555 124.7872 0006746 204.4934 155.5987 15.29916706 78945
GEOSCAN 1 (RS92S1)      
1 64880U 25155E   26156.28580043  .00009899  00000+0  33803-3 0  9998
2 64880  97.4552 124.9321 0006673 204.1247 155.9682 15.30494598 78957
239ALFEROV (RS61S)      
1 64881U 25155F   26156.27215721  .00013012  00000+0  41530-3 0  9994
2 64881  97.4554 125.4404 0006282 200.5660 159.5330 15.32606325 78981
GEOSCAN 2 (RS92S2)      
1 64890U 25155Q   26156.28159415  .00010035  00000+0  33979-3 0  9992
2 64890  97.4551 125.0756 0006538 188.1839 171.9296 15.30766796 78961
GEOSCAN 5 (RS92S5)      
1 64891U 25155R   26156.26365523  .00014096  00000+0  44525-3 0  9990
2 64891  97.4545 125.5648 0004965 203.6028 156.4986 15.32925642 78991
GEOSCAN 4 (RS92S4)      
1 64892U 25155S   26156.24901711  .00013888  00000+0  43672-3 0  9994
2 64892  97.4549 125.5950 0005008 204.5236 155.5768 15.33072944 78999
GEOSCAN 3 (RS92S3)      
1 64893U 25155T   26156.26490374  .00017665  00000+0  52225-3 0  9996
2 64893  97.4538 126.0070 0004882 201.5795 158.5243 15.34979325 79029
INNOSAT 3 (RS92S0)      
1 64894U 25155U   26156.25358125  .00034573  00000+0  78499-3 0  9991
2 64894  97.4490 127.4721 0004243 183.0885 177.0337 15.42955103 79128
KNACKSAT-2              
1 67683U 98067XZ  26156.11067754  .00054547  00000+0  69168-3 0  9998
2 67683  51.6316 355.1703 0010742 163.6532 196.4809 15.58840087 18392
